[{"OBJECT_NAME":"STARLINK-3632","OBJECT_ID":"2022-017S","EPOCH":"2026-03-09T22:17:49.977888","MEAN_MOTION":15.0883931,"ECCENTRICITY":0.00012715,"INCLINATION":53.2193,"RA_OF_ASC_NODE":348.0477,"ARG_OF_PERICENTER":96.3478,"MEAN_ANOMALY":263.7659,"EPHEMERIS_TYPE":0,"CLASSIFICATION_TYPE":"U","NORAD_CAT_ID":51784,"ELEMENT_SET_NO":999,"REV_AT_EPOCH":22231,"BSTAR":-4.708072e-5,"MEAN_MOTION_DOT":-1.037e-5,"MEAN_MOTION_DDOT":0},{"OBJECT_NAME":"DIAMANT R\/B","OBJECT_ID":"1967-011B","EPOCH":"2026-03-09T23:01:25.838112","MEAN_MOTION":14.34400418,"ECCENTRICITY":0.03301408,"INCLINATION":39.9445,"RA_OF_ASC_NODE":294.6723,"ARG_OF_PERICENTER":69.1567,"MEAN_ANOMALY":294.4228,"EPHEMERIS_TYPE":0,"CLASSIFICATION_TYPE":"U","NORAD_CAT_ID":2671,"ELEMENT_SET_NO":999,"REV_AT_EPOCH":4127,"BSTAR":0.00063874557,"MEAN_MOTION_DOT":3.249e-5,"MEAN_MOTION_DDOT":0}]
